STARLINK-33995          
1 63706U 25087K   26125.95965111  .00020220  00000+0  69291-3 0  9992
2 63706  53.1574 313.8448 0000864  51.6022 308.5056 15.30202235 57961
STARLINK-33982          
1 63707U 25087L   26125.79314302  .00018580  00000+0  63785-3 0  9993
2 63707  53.1598 314.2215 0000988  65.4568 294.6536 15.30201443 57946
STARLINK-33915          
1 63708U 25087M   26125.93538147  .00028785  00000+0  98028-3 0  9991
2 63708  53.1594 313.6956 0001025  68.4176 291.6933 15.30198317 57964
STARLINK-33862          
1 63709U 25087N   26125.92904927  .00035757  00000+0  12136-2 0  9996
2 63709  53.1604 313.6552 0000952  72.4060 287.7045 15.30201059 57962
STARLINK-33920          
1 63710U 25087P   26126.08289773  .00018567  00000+0  63752-3 0  9992
2 63710  53.1586 313.1963 0001081  86.9225 273.1899 15.30196366 57983
STARLINK-33580          
1 63711U 25087Q   26126.00002315  .00048915  00000+0  15784-2 0  9991
2 63711  53.1587 313.6412 0001190  86.3402 145.7199 15.31686490  5883
STARLINK-33783          
1 63712U 25087R   26125.94396861  .00013497  00000+0  44569-3 0  9997
2 63712  53.1584 313.7488 0001029  96.8008 263.3111 15.31716040 57966
STARLINK-33773          
1 63713U 25087S   26125.51512901  .00021547  00000+0  70357-3 0  9995
2 63713  53.1599 315.3352 0001213  89.8201 270.2940 15.31724654 57904
STARLINK-33745          
1 63714U 25087T   26126.10811580  .00019809  00000+0  67927-3 0  9994
2 63714  53.1616 312.6363 0002841  33.4892 326.6288 15.30193913 57993
STARLINK-33728          
1 63715U 25087U   26125.91955169  .00033404  00000+0  11352-2 0  9992
2 63715  53.1604 313.5907 0000846  77.7362 282.3734 15.30191151 57964
STARLINK-33749          
1 63716U 25087V   26125.88339175  .00013603  00000+0  44940-3 0  9991
2 63716  53.1585 314.0768 0000924  88.7386 271.3721 15.31692807 57957
STARLINK-33725          
1 63717U 25087W   26125.92271463  .00025679  00000+0  87556-3 0  9998
2 63717  53.1598 313.6010 0001956 143.6464 216.4669 15.30220300 57967
STARLINK-33641          
1 63718U 25087X   26125.92997573  .00020569  00000+0  67208-3 0  9991
2 63718  53.1596 313.6565 0003553 348.1158  11.9759 15.31729962 57965
STARLINK-33727          
1 63719U 25087Y   26125.81674030  .00032629  00000+0  97294-3 0  9998
2 63719  53.1598 313.6701 0001048  87.6748 272.4374 15.34389966 57952
STARLINK-33757          
1 63720U 25087Z   26125.93326977  .00033151  00000+0  11262-2 0  9998
2 63720  53.1604 313.6769 0001244  63.3185 296.7943 15.30205844 57960
STARLINK-33774          
1 63721U 25087AA  26125.93930499  .00032641  00000+0  10586-2 0  9990
2 63721  53.1594 313.7187 0001148  84.7138 275.3995 15.31712199 57969
STARLINK-33767          
1 63722U 25087AB  26125.92059896  .00020979  00000+0  71783-3 0  9991
2 63722  53.1613 313.5942 0001322  87.8688 272.2464 15.30228246 57968
STARLINK-33806          
1 63723U 25087AC  26125.92695019  .00030084  00000+0  10242-2 0  9995
2 63723  53.1601 313.6347 0001157  82.7950 277.3182 15.30185445 57964
KUIPER-00008            
1 63724U 25088A   26126.20386920  .00003693  00000+0  51226-3 0  9991
2 63724  51.8989 193.6807 0000350  67.9210 292.1789 14.80007216 56560
KUIPER-00009            
1 63725U 25088B   26125.67853589 -.00001726  00000+0 -19768-3 0  9994
2 63725  51.9007 213.6196 0000892 126.4657 233.6388 14.79895418 56230
KUIPER-00010            
1 63726U 25088C   26125.43268657  .00004033  00000+0  55795-3 0  9997
2 63726  51.9006 192.1832 0000306  84.7510 275.3488 14.79913617 56137
KUIPER-00011            
1 63727U 25088D   26125.72851918  .00004055  00000+0  56073-3 0  9992
2 63727  51.8988 198.4331 0000347  89.6422 270.4581 14.79923190 56205
KUIPER-00012            
1 63728U 25088E   26126.11606444 -.00007738  00000+0 -98702-3 0  9997
2 63728  51.8982 181.6457 0001087  89.6255 270.4831 14.79937866 56426
KUIPER-00013            
1 63729U 25088F   26125.64212471 -.00002803  00000+0 -33888-3 0  9990
2 63729  51.9020 216.2600 0000449 190.0427 170.0527 14.79925517 56006
KUIPER-00014            
1 63730U 25088G   26125.54099984  .00005148  00000+0  70369-3 0  9991
2 63730  51.9006 216.6527 0000716 140.4105 219.6909 14.79936707 55807
KUIPER-00015            
1 63731U 25088H   26125.56379898  .00004298  00000+0  59218-3 0  9994
2 63731  51.8986 226.6292 0000443  96.4930 263.6083 14.79950735 56122
KUIPER-00016            
1 63732U 25088J   26125.67229342  .00005068  00000+0  69001-3 0  9992
2 63732  51.8984 218.5848 0000318 117.7495 242.3500 14.80130864 55786
KUIPER-00018            
1 63733U 25088K   26125.44762314  .00000407  00000+0  82399-4 0  9997
2 63733  51.9028 209.6001 0000606  94.7432 265.3600 14.79916500 55899
KUIPER-00019            
1 63734U 25088L   26125.52386372  .00003870  00000+0  58022-3 0  9995
2 63734  51.8999 207.8531 0000456  82.5673 277.5340 14.76535867 55929
KUIPER-00020            
1 63735U 25088M   26125.64751364  .00002119  00000+0  30686-3 0  9997
2 63735  51.9008 211.2287 0000426 256.6123 103.4792 14.79925523 56092
KUIPER-00021            
1 63736U 25088N   26126.22150595  .00013247  00000+0  17628-2 0  9996
2 63736  51.8994 208.6538 0001609  51.8900 308.2207 14.79941239 56017
KUIPER-00023            
1 63737U 25088P   26125.64406019  .00003502  00000+0  48990-3 0  9997
2 63737  51.8997 213.6867 0000336  64.3512 295.7484 14.79778971 56193
KUIPER-00024            
1 63738U 25088Q   26126.19855427  .00002832  00000+0  40038-3 0  9990
2 63738  51.9029 198.8265 0000553  96.3211 263.7814 14.79921307 56576
KUIPER-00025            
1 63739U 25088R   26126.22406956  .00004059  00000+0  56024-3 0  9999
2 63739  51.9018 206.1918 0000439  60.0093 300.0913 14.79995733 56335
KUIPER-00027            
1 63740U 25088S   26126.19583904 -.00001687  00000+0 -19232-3 0  9992
2 63740  51.9000 201.2994 0000578  85.7463 274.3565 14.79933215 56138
KUIPER-00028            
1 63741U 25088T   26126.23230610 -.00001730  00000+0 -19808-3 0  9999
2 63741  51.9004 198.5974 0000292  75.8719 284.2275 14.79926141 56583
KUIPER-00029            
1 63742U 25088U   26126.22597178  .00003275  00000+0  49398-3 0  9995
2 63742  51.9009 196.7849 0002523  46.2718 313.8452 14.76699750 56137
KUIPER-00030            
1 63743U 25088V   26125.63898763 -.00025725  00000+0 -33615-2 0  9994
2 63743  51.9003 218.7156 0000590  77.1109 282.9920 14.79892889 56066
KUIPER-00031            
1 63744U 25088W   26125.61249327  .00004754  00000+0  58919-3 0  9991
2 63744  51.8992 202.3812 0001452 333.9393  26.1498 14.84228366 56008
KUIPER-00032            
1 63745U 25088X   26125.96977676  .00014320  00000+0  37407-3 0  9994
2 63745  51.8657 106.8510 0004711 339.7192  20.3608 15.39026395 58361
KUIPER-00033            
1 63746U 25088Y   26125.99466631 -.00001545  00000+0 -17371-3 0  9997
2 63746  51.9021 232.1782 0000929 112.3034 247.8027 14.79921647 56107
KUIPER-00034            
1 63747U 25088Z   26126.17016341  .00000924  00000+0  15027-3 0  9992
2 63747  51.8988 193.9266 0000644 104.0259 256.0775 14.79926019 56336
KUIPER-00035            
1 63748U 25088AA  26125.67049272  .00001958  00000+0  28587-3 0  9999
2 63748  51.9003 221.1209 0000151  70.4672 289.6307 14.79920174 55962
KUIPER-00037            
1 63749U 25088AB  26125.64600210  .00005987  00000+0  74687-3 0  9990
2 63749  51.9003 220.5997 0000125 300.3728  59.7223 14.83551604 56752
KUIPER-00038            
1 63750U 25088AC  26125.51785567  .00002137  00000+0  30932-3 0  9996
2 63750  51.9011 206.8067 0000731  89.4972 270.6074 14.79925991 55933
STARLINK-11677 [DTC]    
1 63751U 25089A   26125.86163819  .00191745  00000+0  14639-2 0  9995
2 63751  42.9992 307.9473 0000983 287.7193  72.3567 15.70835042 59121
STARLINK-11702 [DTC]    
1 63752U 25089B   26125.51716395  .00282790  00000+0  21149-2 0  9996
2 63752  42.9996 309.6496 0001489 213.1755 146.9020 15.71045000 59073
STARLINK-11706 [DTC]    
1 63753U 25089C   26126.16668980 -.00082138  00000+0 -64319-3 0  9998
2 63753  43.0002 305.5113 0001546 280.7220 246.9879 15.70831003  5974
STARLINK-11662 [DTC]    
1 63754U 25089D   26125.52778276  .00048044  00000+0  37472-3 0  9994
2 63754  42.9978 309.7336 0000917 260.2370  99.8394 15.70905753 59125
STARLINK-11681 [DTC]    
1 63755U 25089E   26125.91990888  .00124346  00000+0  95841-3 0  9997
2 63755  42.9986 307.5207 0001145 266.7553  93.3184 15.70832960 59132
STARLINK-11688 [DTC]    
1 63756U 25089F   26125.52247416  .00205768  00000+0  15577-2 0  9992
2 63756  42.9984 309.6910 0001660 255.0591 105.0092 15.70992512 58969
STARLINK-11676 [DTC]    
1 63757U 25089G   26125.87212476  .00206974  00000+0  15765-2 0  9998
2 63757  42.9996 307.1335 0001747 290.9791  69.0889 15.70842417 59022
STARLINK-11705 [DTC]    
1 63758U 25089H   26125.85101665  .00216444  00000+0  16340-2 0  9997
2 63758  42.9995 307.8600 0002123 281.3701  78.6928 15.71024834 59079
STARLINK-11703 [DTC]    
1 63759U 25089J   26125.51185553  .00275618  00000+0  20668-2 0  9995
2 63759  42.9977 309.6031 0001950 266.7134  93.3510 15.71003126 59074
STARLINK-11701 [DTC]    
1 63760U 25089K   26125.55951163  .00209981  00000+0  15991-2 0  9992
2 63760  42.9989 309.0905 0004729 288.2085  71.8267 15.70828903 59082
STARLINK-11660 [DTC]    
1 63761U 25089L   26125.57013086  .00206148  00000+0  15712-2 0  9991
2 63761  43.0011 309.1768 0003811 284.8252  75.2193 15.70825588 59035
STARLINK-11699 [DTC]    
1 63762U 25089M   26125.86694032  .00165675  00000+0  12678-2 0  9997
2 63762  42.9982 307.9840 0003671 300.6759  59.3746 15.70858743 59127
STARLINK-11693 [DTC]    
1 63763U 25089N   26125.89427625  .00164937  00000+0  12537-2 0  9997
2 63763  42.9994 307.3103 0001787 306.9448  53.1256 15.71026030 59021
STARLINK-33760          
1 63764U 25089P   26125.95171919  .00018323  00000+0  67334-3 0  9990
2 63764  42.9988  81.9694 0001233 268.9519  91.1192 15.27597740 57714
